NORAD_CAT_ID,OBJECT_NAME,OBJECT_TYPE,EPOCH,MEAN_MOTION,ECCENTRICITY,INCLINATION,RA_OF_ASC_NODE,ARG_OF_PERICENTER,MEAN_ANOMALY,BSTAR,MEAN_MOTION_DOT,MEAN_MOTION_DDOT,TLE_LINE0,TLE_LINE1,TLE_LINE2,SEMIMAJOR_AXIS,PERIOD,APOGEE,PERIGEE,DECAYED
54187.0,STARLINK-5240,PAYLOAD,2023-12-20 11:07:53,15.08847198,0.0002727,53.2186,41.1894,56.5648,303.5604,-0.000117,-2.151e-05,0.0,0 STARLINK-5240,1 54187U 22141AG  23354.46381368 -.00002151  00000-0 -11700-3 0  9994,2 54187  53.2186  41.1894 0002727  56.5648 303.5604 15.08847198 63776,6917.858,95.437,541.61,537.837,0.0
54187.0,STARLINK-5240,PAYLOAD,2023-12-21 09:23:17,15.08849016,0.0002025,53.2183,37.0291,76.3445,283.7772,9.8858e-05,1.286e-05,0.0,0 STARLINK-5240,1 54187U 22141AG  23355.39117063  .00001286  00000-0  98858-4 0  9992,2 54187  53.2183  37.0291 0002025  76.3445 283.7772 15.08849016 63680,6917.853,95.437,541.119,538.317,0.0
54187.0,STARLINK-5240,PAYLOAD,2023-12-22 09:14:04,15.08844021,0.0001893,53.2181,32.5673,103.1159,257.0044,8.7843e-05,1.11e-05,0.0,0 STARLINK-5240,1 54187U 22141AG  23356.38477117  .00001110  00000-0  87843-4 0  9999,2 54187  53.2181  32.5673 0001893 103.1159 257.0044 15.08844021 64065,6917.868,95.437,541.043,538.424,0.0
54187.0,STARLINK-5240,PAYLOAD,2023-12-23 09:04:51,15.08844358,0.0001908,53.2193,28.1055,103.226,256.8945,2.854e-06,-2.43e-06,0.0,0 STARLINK-5240,1 54187U 22141AG  23357.37837331 -.00000243  00000-0  28540-5 0  9994,2 54187  53.2193  28.1055 0001908 103.2260 256.8945 15.08844358 64211,6917.867,95.437,541.052,538.412,0.0
54187.0,STARLINK-5240,PAYLOAD,2023-12-24 12:06:25,15.08837072,0.0002065,53.22,23.0539,116.1471,243.9733,0.000132,1.813e-05,0.0,0 STARLINK-5240,1 54187U 22141AG  23358.50445647  .00001813  00000-0  13200-3 0  9993,2 54187  53.2200  23.0539 0002065 116.1471 243.9733 15.08837072 64388,6917.889,95.438,541.183,538.326,0.0
54187.0,STARLINK-5240,PAYLOAD,2023-12-25 08:46:25,15.08846235,0.000201,53.2202,19.1885,114.1732,245.9471,0.00011449,1.535e-05,0.0,0 STARLINK-5240,1 54187U 22141AG  23359.36557266  .00001535  00000-0  11449-3 0  9993,2 54187  53.2202  19.1885 0002010 114.1732 245.9471 15.08846235 64289,6917.861,95.437,541.117,538.336,0.0
54187.0,STARLINK-5240,PAYLOAD,2023-12-26 00:40:17,15.0883997,0.0001964,53.2197,16.2131,113.9599,246.1599,-5.303e-05,-1.132e-05,0.0,0 STARLINK-5240,1 54187U 22141AG  23360.02797547 -.00001132  00000-0 -53030-4 0  9994,2 54187  53.2197  16.2131 0001964 113.9599 246.1599 15.08839970 64618,6917.88,95.438,541.104,538.387,0.0
54187.0,STARLINK-5240,PAYLOAD,2023-12-26 08:37:13,15.08841823,0.0001662,53.2189,14.7249,100.0986,260.0194,-7.8312e-06,-4.13e-06,0.0,0 STARLINK-5240,1 54187U 22141AG  23360.35918083 -.00000413  00000-0 -78312-5 0  9992,2 54187  53.2189  14.7249 0001662 100.0986 260.0194 15.08841823 64430,6917.875,95.437,540.89,538.59,0.0
54187.0,STARLINK-5240,PAYLOAD,2023-12-27 08:27:59,15.08846388,0.0001795,53.2182,10.2657,87.496,272.6237,0.00013645,1.885e-05,0.0,0 STARLINK-5240,1 54187U 22141AG  23361.35277776  .00001885  00000-0  13645-3 0  9998,2 54187  53.2182  10.2657 0001795  87.4960 272.6237 15.08846388 64814,6917.861,95.437,540.968,538.484,0.0
54187.0,STARLINK-5240,PAYLOAD,2023-12-28 00:21:52,15.08835702,0.0002121,53.2173,7.2942,70.1271,289.995,0.00018023,2.581e-05,0.0,0 STARLINK-5240,1 54187U 22141AG  23362.01518577  .00002581  00000-0  18023-3 0  9998,2 54187  53.2173   7.2942 0002121  70.1271 289.9950 15.08835702 64917,6917.894,95.438,541.226,538.291,0.0
54187.0,STARLINK-5240,PAYLOAD,2023-12-28 06:43:24,15.08834271,0.0002028,53.2195,6.1046,76.7894,283.3325,0.00014112,1.958e-05,0.0,0 STARLINK-5240,1 54187U 22141AG  23362.28014791  .00001958  00000-0  14112-3 0  9998,2 54187  53.2195   6.1046 0002028  76.7894 283.3325 15.08834271 64726,6917.898,95.438,541.166,538.36,0.0
54187.0,STARLINK-5240,PAYLOAD,2023-12-29 09:44:57,15.08849826,0.0001723,53.2183,1.0464,92.3583,267.7606,0.00010397,1.367e-05,0.0,0 STARLINK-5240,1 54187U 22141AG  23363.40621694  .00001367  00000-0  10397-3 0  9994,2 54187  53.2183   1.0464 0001723  92.3583 267.7606 15.08849826 65126,6917.85,95.437,540.907,538.523,0.0
54187.0,STARLINK-5240,PAYLOAD,2023-12-30 03:14:13,15.08792822,0.0002337,53.2189,357.7698,109.8439,250.2805,0.00076114,0.00011831,0.0,0 STARLINK-5240,1 54187U 22141AG  23364.13487401  .00011831  00000-0  76114-3 0  9997,2 54187  53.2189 357.7698 0002337 109.8439 250.2805 15.08792822 65231,6918.025,95.441,541.506,538.273,0.0
54187.0,STARLINK-5240,PAYLOAD,2023-12-30 09:35:44,15.08841627,0.0001882,53.2196,356.5815,111.3453,248.7741,6.7131e-05,7.8e-06,0.0,0 STARLINK-5240,1 54187U 22141AG  23364.39982129  .00000780  00000-0  67131-4 0  9993,2 54187  53.2196 356.5815 0001882 111.3453 248.7741 15.08841627 65278,6917.875,95.437,541.042,538.438,0.0
54187.0,STARLINK-5240,PAYLOAD,2023-12-31 06:15:45,15.08839747,0.0001739,53.2189,352.7163,98.099,262.0199,1.9926e-05,2.9e-07,0.0,0 STARLINK-5240,1 54187U 22141AG  23365.26094459  .00000029  00000-0  19926-4 0  9995,2 54187  53.2189 352.7163 0001739  98.0990 262.0199 15.08839747 65403,6917.881,95.438,540.949,538.543,0.0
54187.0,STARLINK-5240,PAYLOAD,2024-01-01 06:06:32,15.08840847,0.0001681,53.2183,348.2581,101.579,258.5391,1.3952e-05,-6.6e-07,0.0,0 STARLINK-5240,1 54187U 22141AG  24001.25454691 -.00000066  00000-0  13952-4 0  9995,2 54187  53.2183 348.2581 0001681 101.5790 258.5391 15.08840847 65323,6917.878,95.438,540.906,538.58,0.0
54187.0,STARLINK-5240,PAYLOAD,2024-01-01 22:00:24,15.08834714,0.0001732,53.218,345.2856,106.1923,253.926,8.2668e-05,1.028e-05,0.0,0 STARLINK-5240,1 54187U 22141AG  24001.91695034  .00001028  00000-0  82668-4 0  9994,2 54187  53.2180 345.2856 0001732 106.1923 253.9260 15.08834714 65429,6917.897,95.438,540.96,538.563,0.0
54187.0,STARLINK-5240,PAYLOAD,2024-01-02 04:21:56,15.08838814,0.0001709,53.2182,344.0975,104.2472,255.871,9.582e-05,1.237e-05,0.0,0 STARLINK-5240,1 54187U 22141AG  24002.18190811  .00001237  00000-0  95820-4 0  9993,2 54187  53.2182 344.0975 0001709 104.2472 255.8710 15.08838814 65697,6917.884,95.438,540.931,538.567,0.0
54187.0,STARLINK-5240,PAYLOAD,2024-01-02 21:51:11,15.08841889,0.0001831,53.2189,340.8271,109.5626,250.5564,8.6133e-05,1.083e-05,0.0,0 STARLINK-5240,1 54187U 22141AG  24002.91054749  .00001083  00000-0  86133-4 0  9999,2 54187  53.2189 340.8271 0001831 109.5626 250.5564 15.08841889 65574,6917.875,95.437,541.006,538.473,0.0
54187.0,STARLINK-5240,PAYLOAD,2024-01-03 07:23:30,15.08843739,0.0001635,53.2182,339.042,92.6302,267.4877,8.5643e-05,1.075e-05,0.0,0 STARLINK-5240,1 54187U 22141AG  24003.30798717  .00001075  00000-0  85643-4 0  9999,2 54187  53.2182 339.0420 0001635  92.6302 267.4877 15.08843739 65860,6917.869,95.437,540.865,538.603,0.0
54187.0,STARLINK-5240,PAYLOAD,2024-01-04 04:03:31,15.08841593,0.000165,53.2185,335.1763,86.8036,273.3145,3.8631e-05,3.27e-06,0.0,0 STARLINK-5240,1 54187U 22141AG  24004.16911041  .00000327  00000-0  38631-4 0  9995,2 54187  53.2185 335.1763 0001650  86.8036 273.3145 15.08841593 65990,6917.876,95.437,540.882,538.599,0.0
54187.0,STARLINK-5240,PAYLOAD,2024-01-04 07:14:17,15.08846748,0.0001681,53.2186,334.5815,86.4225,273.696,7.712e-05,9.4e-06,0.0,0 STARLINK-5240,1 54187U 22141AG  24004.30158569  .00000940  00000-0  77120-4 0  9996,2 54187  53.2186 334.5815 0001681  86.4225 273.6960 15.08846748 65784,6917.86,95.437,540.888,538.562,0.0
54187.0,STARLINK-5240,PAYLOAD,2024-01-05 03:54:18,15.08842885,0.0001717,53.22,330.7112,105.6624,254.4558,-2.9207e-05,-7.53e-06,0.0,0 STARLINK-5240,1 54187U 22141AG  24005.16271041 -.00000753  00000-0 -29207-4 0  9999,2 54187  53.2200 330.7112 0001717 105.6624 254.4558 15.08842885 66145,6917.872,95.437,540.924,538.549,0.0
54187.0,STARLINK-5240,PAYLOAD,2024-01-05 07:05:04,15.08843668,0.0001637,53.219,330.1198,98.3648,261.753,2.9649e-05,1.84e-06,0.0,0 STARLINK-5240,1 54187U 22141AG  24005.29518809  .00000184  00000-0  29649-4 0  9995,2 54187  53.2190 330.1198 0001637  98.3648 261.7530 15.08843668 65933,6917.869,95.437,540.867,538.602,0.0
54187.0,STARLINK-5240,PAYLOAD,2024-01-06 06:55:50,15.08852133,0.000169,53.2192,325.6595,97.4224,262.696,0.00010192,1.335e-05,0.0,0 STARLINK-5240,1 54187U 22141AG  24006.28878018  .00001335  00000-0  10192-3 0  9997,2 54187  53.2192 325.6595 0001690  97.4224 262.6960 15.08852133 66311,6917.843,95.437,540.877,538.539,0.0
54187.0,STARLINK-5240,PAYLOAD,2024-01-06 21:14:19,15.08837698,0.0001655,53.2205,322.983,97.6379,262.4801,-6.2433e-07,-2.98e-06,0.0,0 STARLINK-5240,1 54187U 22141AG  24006.88495296 -.00000298  00000-0 -62433-6 0  9993,2 54187  53.2205 322.9830 0001655  97.6379 262.4801 15.08837698 66177,6917.887,95.438,540.897,538.608,0.0
54187.0,STARLINK-5240,PAYLOAD,2024-01-07 03:35:52,15.08839751,0.0001745,53.2192,321.7952,97.0472,263.0718,2.83e-05,1.62e-06,0.0,0 STARLINK-5240,1 54187U 22141AG  24007.14991096  .00000162  00000-0  28300-4 0  9993,2 54187  53.2192 321.7952 0001745  97.0472 263.0718 15.08839751 66448,6917.881,95.438,540.953,538.539,0.0
54187.0,STARLINK-5240,PAYLOAD,2024-01-07 06:46:38,15.0884208,0.0001666,53.2196,321.1995,96.5116,263.6066,4.0724e-05,3.6e-06,0.0,0 STARLINK-5240,1 54187U 22141AG  24007.28238944  .00000360  00000-0  40724-4 0  9998,2 54187  53.2196 321.1995 0001666  96.5116 263.6066 15.08842080 66232,6917.874,95.437,540.892,538.587,0.0
54187.0,STARLINK-5240,PAYLOAD,2024-01-08 03:26:38,15.08847308,0.0001819,53.2191,317.3331,112.2611,247.8574,1.4134e-05,-6.3e-07,0.0,0 STARLINK-5240,1 54187U 22141AG  24008.14350590 -.00000063  00000-0  14134-4 0  9993,2 54187  53.2191 317.3331 0001819 112.2611 247.8574 15.08847308 66599,6917.858,95.437,540.981,538.465,0.0
54187.0,STARLINK-5240,PAYLOAD,2024-01-09 01:42:03,15.08838891,0.0001745,53.2191,313.1703,107.6083,252.51,6.326e-05,7.19e-06,0.0,0 STARLINK-5240,1 54187U 22141AG  24009.07087145  .00000719  00000-0  63260-4 0  9990,2 54187  53.2191 313.1703 0001745 107.6083 252.5100 15.08838891 66736,6917.884,95.438,540.956,538.542,0.0
